SARSAT 7 (NOAA 15)      
1 25338U 98030A   24346.10801851  .00000376  00000+0  17282-3 0  9992
2 25338  98.5535   9.4328 0010580 161.9483 198.2076 14.26822487382662
GPS BIIR-08             
1 27663U 03005A   24345.39657551  .00000020  00000+0  00000+0 0  9991
2 27663  55.0358 236.9856 0141731  48.6557 106.1219  2.00564747160207
GPS BIIR-11             
1 28190U 04009A   24345.70983500 -.00000061  00000+0  00000+0 0  9999
2 28190  55.3029 297.9772 0098723 155.4943  17.6707  2.00572684151840
GPS BIIR-13             
1 28474U 04045A   24345.90295774 -.00000068  00000+0  00000+0 0  9992
2 28474  55.3869 347.1326 0166815 297.7447  61.7102  2.00562914147330
SARSAT 10 (NOAA 18)     
1 28654U 05018A   24346.19375709  .00000383  00000+0  22689-3 0  9992
2 28654  98.8613  61.5863 0013237 281.7779  78.1908 14.13449116  8261
GPS BIIR-14M            
1 28874U 05038A   24345.66716931 -.00000060  00000+0  00000+0 0  9997
2 28874  55.3481 295.4456 0136666 287.5606 241.4837  2.00573372140737
METEOSAT-9 (MSG-2)      
1 28912U 05049B   24331.84702219  .00000144  00000+0  00000+0 0  9993
2 28912   8.0635  59.4636 0001814 203.9464 153.5423  1.00276594  1313
GOES 13                 
1 29155U 06018A   24345.82767087 -.00000050  00000+0  00000+0 0  9994
2 29155   3.0874  83.1645 0064213 256.9273 138.9975  0.98828619 37781
GPS BIIR-16M            
1 29601U 06052A   24344.99343776  .00000020  00000+0  00000+0 0  9996
2 29601  55.0718 235.9920 0086942  83.5211 277.5349  2.00550638132298
GPS BIIR-17M            
1 32260U 07047A   24345.30280610  .00000014  00000+0  00000+0 0  9992
2 32260  53.7092 102.9548 0159386  79.0766 282.6918  2.00555947125705
GPS BIIR-18M            
1 32384U 07062A   24345.21414032 -.00000057  00000+0  00000+0 0  9991
2 32384  55.4917 296.3532 0027712 156.7018 267.3984  2.00556424124408
SARSAT 12 (NOAA 19)     
1 33591U 09005A   24346.17123117  .00000369  00000+0  22138-3 0  9993
2 33591  99.0250  43.6563 0014308 150.2389 209.9599 14.13226214816621
GOES 14                 
1 35491U 09033A   24345.64304969 -.00000050  00000+0  00000+0 0  9990
2 35491   0.2446  91.5001 0003000 127.8647 343.5255  1.00272576  1046
GOES 15                 
1 36411U 10008A   24345.81976473  .00000054  00000+0  00000+0 0  9994
2 36411   0.1413 271.9480 0006591 339.6900 184.9647  1.00269047 54094
GSAT0101 (GALILEO-PFM)  
1 37846U 11060A   24343.35234903 -.00000063  00000+0  00000+0 0  9999
2 37846  57.1201 356.8222 0002639 311.6499  48.3689  1.70475619 81644
GSAT0102 (GALILEO-FM2)  
1 37847U 11060B   24343.27132628 -.00000063  00000+0  00000+0 0  9992
2 37847  57.1207 356.8247 0004628 304.9247  50.7349  1.70475136 81761
LUCH 5A                 
1 37951U 11074B   24345.56720244 -.00000035  00000+0  00000+0 0  9993
2 37951   7.3376  82.1934 0004840 165.2885 203.3953  1.00269315 47644
METEOSAT-10 (MSG-3)     
1 38552U 12035B   24345.87907953  .00000008  00000+0  00000+0 0  9996
2 38552   3.3695  61.8350 0001328 216.7848 118.0074  1.00268348 45309
SARSAT 13 (METOP-B)     
1 38771U 12049A   24346.12692418  .00000300  00000+0  15627-3 0  9990
2 38771  98.6053  39.1752 0000764  87.6687 272.4579 14.21608019634680
GPS BIIF-3              
1 38833U 12053A   24344.90095467  .00000122  00000+0  00000+0 0  9996
2 38833  53.5245 166.2878 0161747  59.0105 302.6085  2.00560841 88326
GSAT0103 (GALILEO-FM3)  
1 38857U 12055A   24344.56493271  .00000048  00000+0  00000+0 0  9998
2 38857  55.4912 116.7845 0002692 251.9669 107.9761  1.70473327 75555
GPS BIIF-4              
1 39166U 13023A   24345.26156009 -.00000056  00000+0  00000+0 0  9991
2 39166  54.9619 291.4732 0128321  45.2442 315.7897  2.00562123 84774
INSAT-3D                
1 39216U 13038B   24345.90470931 -.00000323  00000+0  00000+0 0  9994
2 39216   0.4918  90.4545 0002338 169.4093 275.4659  1.00268347 41532
GPS BIIF-5              
1 39533U 14008A   24345.75713461  .00000122  00000+0  00000+0 0  9991
2 39533  53.6044 171.8769 0073320 220.4139 139.0872  2.00552142 78581
LUCH 5V                 
1 39727U 14023A   24345.89784573 -.00000254  00000+0  00000+0 0  9997
2 39727   3.7447  74.7301 0004384 202.6066 220.7286  1.00272511 38814
GPS BIIF-6              
1 39741U 14026A   24345.04282542 -.00000062  00000+0  00000+0 0  9999
2 39741  56.6901 353.0515 0035316 314.0789  45.6675  2.00555650 77426
GPS BIIF-7              
1 40105U 14045A   24345.62381513  .00000029  00000+0  00000+0 0  9990
2 40105  55.0166 110.5574 0029506 118.1328 242.1437  2.00577712 74975
GSAT0201 (GALILEO 5)    
1 40128U 14050A   24345.33747940 -.00000080  00000+0  00000+0 0  9997
2 40128  49.4759 295.9693 1615988 158.0858 209.7210  1.85519447 68044
GSAT0202 (GALILEO 6)    
1 40129U 14050B   24345.05612067 -.00000077  00000+0  00000+0 0  9994
2 40129  49.4923 295.0600 1615370 158.8634 208.6829  1.85520181 70204
GPS BIIF-8              
1 40294U 14068A   24345.50378839 -.00000068  00000+0  00000+0 0  9992
2 40294  56.5692  52.3750 0054377  65.0734 295.5309  2.00570957 74107
GLONASS-K 2             
1 40315U 14075A   24345.57478190  .00000086  00000+0  00000+0 0  9991
2 40315  63.6162 209.5507 0019136 204.5119 155.4820  2.13101324 78051
GPS BIIF-9              
1 40534U 15013A   24345.13838331  .00000039  00000+0  00000+0 0  9994
2 40534  53.2862 227.1088 0095579  32.7732 327.8930  2.00554902 70715
GSAT0203 (GALILEO 7)    
1 40544U 15017A   24345.47748985 -.00000070  00000+0  00000+0 0  9997
2 40544  56.9146 356.6746 0006156 266.4590  93.5108  1.70475809 59761
GSAT0204 (GALILEO 8)    
1 40545U 15017B   24343.97241218 -.00000065  00000+0  00000+0 0  9992
2 40545  56.9209 356.7319 0005890 256.1498 103.8257  1.70475434 22782
GPS BIIF-10             
1 40730U 15033A   24345.79804411 -.00000059  00000+0  00000+0 0  9991
2 40730  54.4426 289.8376 0100484  21.0544 339.3522  2.00557811 68894
METEOSAT-11 (MSG-4)     
1 40732U 15034A   24345.80942595  .00000078  00000+0  00000+0 0  9992
2 40732   1.8175  71.5974 0001913 161.4089 147.8493  1.00264915  1663
GSAT0205 (GALILEO 9)    
1 40889U 15045A   24344.32757483  .00000020  00000+0  00000+0 0  9990
2 40889  55.1410 236.9333 0005771  35.2533 324.8561  1.70472875 57559
GSAT0206 (GALILEO 10)   
1 40890U 15045B   24343.37503223  .00000021  00000+0  00000+0 0  9998
2 40890  55.1404 236.9549 0003684  31.4866 328.6088  1.70472924 57563
GPS BIIF-11             
1 41019U 15062A   24345.35945198 -.00000068  00000+0  00000+0 0  9994
2 41019  56.5478  52.2358 0102056 226.4809 132.7072  2.00562720 66729
ELEKTRO-L 2             
1 41105U 15074A   24346.09055291 -.00000102  00000+0  00000+0 0  9990
2 41105   5.2923  77.3209 0004114 191.1050 190.0131  1.00270771 32970
GSAT0209 (GALILEO 12)   
1 41174U 15079A   24342.95752126  .00000054  00000+0  00000+0 0  9998
2 41174  55.5095 116.5394 0001926 341.0041  18.9634  1.70474367 55299
GSAT0208 (GALILEO 11)   
1 41175U 15079B   24343.17739758  .00000053  00000+0  00000+0 0  9999
2 41175  55.5078 116.5310 0001368 350.5296   9.4426  1.70474253 55711
GPS BIIF-12             
1 41328U 16007A   24344.94444765  .00000040  00000+0  00000+0 0  9994
2 41328  55.2055 111.4667 0083436 239.1950 119.9638  2.00553059 64726
GSAT0211 (GALILEO 14)   
1 41549U 16030A   24345.06052710  .00000020  00000+0  00000+0 0  9992
2 41549  55.2885 236.9384 0003815   6.0889 353.9869  1.70472935 53224
GSAT0210 (GALILEO 13)   
1 41550U 16030B   24345.31846670  .00000021  00000+0  00000+0 0  9999
2 41550  55.2877 236.9297 0000789 236.7297 123.3342  1.70473340 53228
INSAT-3DR               
1 41752U 16054A   24345.39345958 -.00000061  00000+0  00000+0 0  9995
2 41752   0.0912  96.3644 0014155 173.0476  25.8588  1.00270573 30261
GSAT0207 (GALILEO 15)   
1 41859U 16069A   24344.42419600  .00000047  00000+0  00000+0 0  9991
2 41859  55.1762 116.4578 0002018 305.6908  54.2631  1.70474323 49947
GSAT0212 (GALILEO 16)   
1 41860U 16069B   24343.10513690  .00000053  00000+0  00000+0 0  9998
2 41860  55.1739 116.4905 0001517  26.6671 333.3154  1.70474540 50176
GSAT0213 (GALILEO 17)   
1 41861U 16069C   24345.23313481  .00000041  00000+0  00000+0 0  9998
2 41861  55.1766 116.4385 0002365 266.0321  93.9101  1.70474820 50074
GSAT0214 (GALILEO 18)   
1 41862U 16069D   24345.37857611  .00000040  00000+0  00000+0 0  9991
2 41862  55.1752 116.4278 0001445 261.2298  98.7222  1.70474642 50203
GOES 16                 
1 41866U 16071A   24345.86404920 -.00000232  00000+0  00000+0 0  9997
2 41866   0.0378 243.2777 0001313  64.5620   8.1057  1.00272089 29559
GSAT-17                 
1 42815U 17040B   24343.72201186 -.00000242  00000+0  00000+0 0  9992
2 42815   0.0936  95.2125 0006873 164.4888 171.6904  1.00272321 27215
GSAT0215 (GALILEO 19)   
1 43055U 17079A   24343.52222391  .00000021  00000+0  00000+0 0  9994
2 43055  55.2662 236.8003 0001363 329.0988  30.9663  1.70473692 43518
GSAT0216 (GALILEO 20)   
1 43056U 17079B   24344.98695526  .00000020  00000+0  00000+0 0  9999
2 43056  55.2659 236.7599 0002710 312.3839  47.6645  1.70473833 43557
GSAT0217 (GALILEO 21)   
1 43057U 17079C   24345.20749281  .00000021  00000+0  00000+0 0  9995
2 43057  55.2642 236.7522 0002886 331.7176  28.3383  1.70473632 43540
GSAT0218 (GALILEO 22)   
1 43058U 17079D   24344.25437773  .00000020  00000+0  00000+0 0  9999
2 43058  55.2646 236.7761 0002955 302.5364  57.5067  1.70473770 43526
GOES 17                 
1 43226U 18022A   24346.07248175 -.00000075  00000+0  00000+0 0  9994
2 43226   0.0100 171.4487 0003546  85.9711 104.2764  1.00270818 24895
GSAT0221 (GALILEO 25)   
1 43564U 18060A   24344.74199128 -.00000066  00000+0  00000+0 0  9996
2 43564  57.2950 356.7394 0006361 277.7073  82.2614  1.70475666 39713
GSAT0222 (GALILEO 26)   
1 43565U 18060B   24345.54734263 -.00000069  00000+0  00000+0 0  9994
2 43565  57.2990 356.7196 0005800 258.6771 101.2981  1.70475414 39774
GSAT0219 (GALILEO 23)   
1 43566U 18060C   24344.00921509 -.00000064  00000+0  00000+0 0  9991
2 43566  57.2977 356.7631 0005488 282.4599  77.5199  1.70475671 39725
